0 FENGYUN 1C DEB
1 37457U 99025EJB 13281.67861288  .00001800  00000-0  12506-2 0  1304
2 37457 099.0417 235.2936 0077234 230.1745 129.2526 13.98710083234784
0 FENGYUN 1C DEB
1 37457U 99025EJB 13292.69469972  .00001858  00000-0  12887-2 0  1329
2 37457 099.0428 246.1569 0077288 199.5021 160.3567 13.98752213236327
0 FENGYUN 1C DEB
1 37457U 99025EJB 13294.69758222  .00001875  00000-0  12988-2 0  1332
2 37457 099.0436 248.1306 0078474 193.7288 166.1943 13.98760220236606
